CUTE-1 (CO-55)          
1 27844U 03031E   26196.97918346  .00000131  00000+0  75469-4 0  9992
2 27844  98.6744 205.1765 0010841 100.6537 259.5863 14.24351837195772
CUBESAT XI-IV (CO-57)   
1 27848U 03031J   26196.98211363  .00000105  00000+0  65012-4 0  9996
2 27848  98.6774 204.8688 0010566 117.3488 242.8767 14.23634777195474
CUBESAT XI-V            
1 28895U 05043F   26196.93934947  .00000649  00000+0  10996-3 0  9992
2 28895  98.3016 353.1708 0015281 113.0525 247.2294 14.72703396105987
CUTE-1.7+APD II (CO-65) 
1 32785U 08021C   26197.21519561  .00002492  00000+0  15875-3 0  9996
2 32785  97.8296 179.2460 0006941 295.5098  64.5412 15.09706582989578
CANX-2                  
1 32790U 08021H   26197.19606318  .00001340  00000+0  96921-4 0  9999
2 32790  97.8658 177.5446 0008624 314.2838  45.7680 15.05809244989171
SEEDS II (CO-66)        
1 32791U 08021J   26196.98191949  .00009999  00000+0  30950-3 0  9992
2 32791  97.7522 196.2767 0003155 154.4118 205.7280 15.33682976991702
SWISSCUBE               
1 35932U 09051B   26197.17712106  .00000443  00000+0  97133-4 0  9994
2 35932  98.4006 105.5678 0007888 116.4429 243.7582 14.62531689893399
BEESAT-1                
1 35933U 09051C   26196.31185738  .00000377  00000+0  85523-4 0  9991
2 35933  98.3935 104.2639 0006132 129.5089 230.6654 14.61761931893299
ITUPSAT1                
1 35935U 09051E   26196.19038705  .00000349  00000+0  82054-4 0  9995
2 35935  98.4018 103.3025 0008086 143.1681 217.0076 14.60478742892822
TISAT 1                 
1 36799U 10035E   26196.78600925  .00012652  00000+0  40253-3 0  9996
2 36799  98.0716 145.8980 0004554 118.9066 241.2631 15.32747095872088
STRAND-1                
1 39090U 13009E   26196.74002715  .00000123  00000+0  55624-4 0  9995
2 39090  98.3935  16.2735 0009437 139.6200 220.5689 14.37179078701162
BRITE-AUSTRIA           
1 39091U 13009F   26196.76529549  .00000075  00000+0  39948-4 0  9994
2 39091  98.4008  15.4957 0010793 149.0396 211.1429 14.36552666701154
NEE-01 PEGASO           
1 39151U 13018B   26196.33340642  .00001174  00000+0  11643-3 0  9991
2 39151  98.1256 341.4213 0013693  73.9409 286.3317 14.93789204714902
POPACS 2                
1 39269U 13055E   26196.75443690  .00014540 -92046-6  23703-3 0  9995
2 39269  80.9916 111.4814 0414930 102.0893 262.7124 14.92031396667470
POPACS 3                
1 39270U 13055F   26196.42360878  .00008298  00000+0  19704-3 0  9997
2 39270  80.9990 198.5566 0548749 343.9708  14.4695 14.56665007642662
ZACUBE-1 (TSHEPISOSAT)  
1 39417U 13066B   26196.93443538  .00001227  00000+0  98253-4 0  9995
2 39417  97.8008 159.4128 0044057 152.8424 207.5118 15.01330710685042
WNISAT-1                
1 39423U 13066H   26196.96503794  .00000580  00000+0  11337-3 0  9994
2 39423  97.7236 344.0838 0163919 140.9009 220.4173 14.58120940670926
TRITON-1                
1 39427U 13066M   26197.19826603  .00001550  00000+0  18956-3 0  9993
2 39427  97.8229 106.3430 0090645 138.8489 221.9606 14.81800243678385
GOMX-1                  
1 39430U 13066Q   26197.19255281  .00000594  00000+0  96202-4 0  9993
2 39430  97.6464  35.8247 0128167 344.9990  14.7429 14.69543658674172
CUBEBUG-2 (LO-74)       
1 39440U 13066AA  26196.86496092  .00002083  00000+0  19551-3 0  9990
2 39440  97.8915 145.9709 0055630 293.0759  66.4601 14.93969667681277
NEE-02 KRYSAOR          
1 39441U 13066AB  26197.08287100  .00001115  00000+0  12704-3 0  9992
2 39441  97.8897 136.0946 0065323 336.3601  23.4616 14.86741190680491
FUNCUBE-1 (AO-73)       
1 39444U 13066AE  26196.88912523  .00003677  00000+0  22787-3 0  9993
2 39444  97.8290 168.9436 0037989 105.4335 255.1095 15.09822727683990
UWE-3                   
1 39446U 13066AG  26196.82148462  .00001951  00000+0  17026-3 0  9995
2 39446  97.8715 153.0945 0047549 222.4036 137.3508 14.97201399681861
BRITE-CA1 (TORONTO)     
1 40020U 14033L   26196.84598904  .00000513  00000+0  84679-4 0  9994
2 40020  97.9773 325.2513 0078484 184.1727 175.8836 14.72723276646434
DUCHIFAT-1              
1 40021U 14033M   26197.12557747  .00087055  00000+0  68520-3 0  9999
2 40021  98.0416 260.5020 0002770 239.6354 120.4633 15.71200075660289
NANOSATC-BR1            
1 40024U 14033Q   26197.07640645  .00009337  00000+0  30166-3 0  9998
2 40024  98.0707 232.0424 0005282  94.1088 266.0755 15.32346233658403
QB50P1                  
1 40025U 14033R   26197.01289013  .00004113  00000+0  20193-3 0  9997
2 40025  98.0963 210.1890 0010382 122.1904 238.0337 15.18673121657405
QB50P2                  
1 40032U 14033Y   26196.95650244  .00003941  00000+0  21181-3 0  9991
2 40032  98.0761 195.6369 0009292  81.4745 278.7538 15.15512295657028
PERSEUS-M2              
1 40037U 14033AD  26197.16730220  .00001099  00000+0  10446-3 0  9997
2 40037  97.9984 148.3022 0010877 195.6902 164.3983 14.95594318655118
PERSEUS-M1              
1 40039U 14033AF  26196.40204849  .00001162  00000+0  10973-3 0  9994
2 40039  97.9654 141.0000 0010919 195.4743 164.6145 14.95716338654859
